NORAD_CAT_ID,OBJECT_NAME,OBJECT_TYPE,EPOCH,MEAN_MOTION,ECCENTRICITY,INCLINATION,RA_OF_ASC_NODE,ARG_OF_PERICENTER,MEAN_ANOMALY,BSTAR,MEAN_MOTION_DOT,MEAN_MOTION_DDOT,TLE_LINE0,TLE_LINE1,TLE_LINE2,SEMIMAJOR_AXIS,PERIOD,APOGEE,PERIGEE,DECAYED
55742.0,STARLINK-5594,PAYLOAD,2024-07-05 19:32:48,14.98334129,0.0003001,70.0008,347.353,272.2727,87.8088,0.00010088,1.111e-05,0.0,0 STARLINK-5594,1 55742U 23028B   24187.81445043  .00001111  00000-0  10088-3 0  9993,2 55742  70.0008 347.3530 0003001 272.2727  87.8088 14.98334129 74383,6950.18,96.107,574.131,569.959,0.0
55742.0,STARLINK-5594,PAYLOAD,2024-07-06 03:33:28,14.98343089,0.0003056,70.0008,346.5113,271.7106,88.3703,-0.00013086,-1.655e-05,0.0,0 STARLINK-5594,1 55742U 23028B   24188.14824805 -.00001655  00000-0 -13086-3 0  9993,2 55742  70.0008 346.5113 0003056 271.7106  88.3703 14.98343089 74437,6950.152,96.106,574.141,569.893,0.0
55742.0,STARLINK-5594,PAYLOAD,2024-07-06 13:10:17,14.98318905,0.0002949,70.001,345.5028,269.5488,90.5333,0.00023568,2.719e-05,0.0,0 STARLINK-5594,1 55742U 23028B   24188.54881552  .00002719  00000-0  23568-3 0  9995,2 55742  70.0010 345.5028 0002949 269.5488  90.5333 14.98318905 74491,6950.227,96.108,574.142,570.043,0.0
55742.0,STARLINK-5594,PAYLOAD,2024-07-06 14:46:26,14.98300334,0.0003091,70.0011,345.3344,267.0274,93.0531,0.0005633,6.629e-05,0.0,0 STARLINK-5594,1 55742U 23028B   24188.61558083  .00006629  00000-0  56330-3 0  9990,2 55742  70.0011 345.3344 0003091 267.0274  93.0531 14.98300334 74503,6950.285,96.109,574.298,570.001,0.0
55742.0,STARLINK-5594,PAYLOAD,2024-07-06 19:34:49,14.98330363,0.0002884,70.0011,344.8293,267.5876,92.4953,1.353e-05,6.8e-07,0.0,0 STARLINK-5594,1 55742U 23028B   24188.81585309  .00000068  00000-0  13530-4 0  9990,2 55742  70.0011 344.8293 0002884 267.5876  92.4953 14.98330363 74531,6950.192,96.107,574.061,570.052,0.0
55742.0,STARLINK-5594,PAYLOAD,2024-07-07 03:35:30,14.98330505,0.0002887,70.0011,343.9877,268.2503,91.8325,1.4093e-05,7.5e-07,0.0,0 STARLINK-5594,1 55742U 23028B   24189.14965284  .00000075  00000-0  14093-4 0  9994,2 55742  70.0011 343.9877 0002887 268.2503  91.8325 14.98330505 74586,6950.191,96.107,574.063,570.05,0.0
55742.0,STARLINK-5594,PAYLOAD,2024-07-07 13:12:18,14.98329508,0.0003047,70.001,342.9775,271.2154,88.8656,4.1112e-05,3.98e-06,0.0,0 STARLINK-5594,1 55742U 23028B   24189.55021274  .00000398  00000-0  41112-4 0  9991,2 55742  70.0010 342.9775 0003047 271.2154  88.8656 14.98329508 74647,6950.194,96.107,574.177,569.942,0.0
55742.0,STARLINK-5594,PAYLOAD,2024-07-08 11:38:11,14.98323647,0.0003014,70.0009,340.6208,269.2621,90.8193,7.7166e-05,8.28e-06,0.0,0 STARLINK-5594,1 55742U 23028B   24190.48485539  .00000828  00000-0  77166-4 0  9999,2 55742  70.0009 340.6208 0003014 269.2621  90.8193 14.98323647 74783,6950.213,96.107,574.172,569.983,0.0
55742.0,STARLINK-5594,PAYLOAD,2024-07-08 13:14:19,14.98326529,0.0002989,70.001,340.4527,268.7258,91.3559,2.434e-05,1.97e-06,0.0,0 STARLINK-5594,1 55742U 23028B   24190.55161481  .00000197  00000-0  24340-4 0  9999,2 55742  70.0010 340.4527 0002989 268.7258  91.3559 14.98326529 74792,6950.204,96.107,574.146,569.991,0.0
55742.0,STARLINK-5594,PAYLOAD,2024-07-08 19:38:51,14.98331488,0.0003017,70.0009,339.7793,269.6519,90.4294,5.9386e-05,6.16e-06,0.0,0 STARLINK-5594,1 55742U 23028B   24190.81865114  .00000616  00000-0  59386-4 0  9996,2 55742  70.0009 339.7793 0003017 269.6519  90.4294 14.98331488 74830,6950.188,96.107,574.15,569.956,0.0
55742.0,STARLINK-5594,PAYLOAD,2024-07-09 11:40:12,14.98328396,0.0003014,70.0008,338.0949,270.2952,89.7861,0.00011686,1.302e-05,0.0,0 STARLINK-5594,1 55742U 23028B   24191.48625143  .00001302  00000-0  11686-3 0  9999,2 55742  70.0008 338.0949 0003014 270.2952  89.7861 14.98328396 74936,6950.198,96.107,574.158,569.968,0.0
55742.0,STARLINK-5594,PAYLOAD,2024-07-09 14:52:28,14.98331293,0.0003011,70.0009,337.7583,270.8226,89.2589,6.1736e-05,6.44e-06,0.0,0 STARLINK-5594,1 55742U 23028B   24191.61977080  .00000644  00000-0  61736-4 0  9994,2 55742  70.0009 337.7583 0003011 270.8226  89.2589 14.98331293 74958,6950.189,96.107,574.147,569.961,0.0
55742.0,STARLINK-5594,PAYLOAD,2024-07-09 19:40:52,14.98335761,0.0003022,70.0009,337.2532,270.5556,89.5257,8.1308e-05,8.77e-06,0.0,0 STARLINK-5594,1 55742U 23028B   24191.82004710  .00000877  00000-0  81308-4 0  9993,2 55742  70.0009 337.2532 0003022 270.5556  89.5257 14.98335761 74984,6950.175,96.107,574.14,569.94,0.0
55742.0,STARLINK-5594,PAYLOAD,2024-07-10 11:42:13,14.98327374,0.0002976,70.0009,335.57,270.4038,89.678,4.667e-05,4.64e-06,0.0,0 STARLINK-5594,1 55742U 23028B   24192.48765326  .00000464  00000-0  46670-4 0  9998,2 55742  70.0009 335.5700 0002976 270.4038  89.6780 14.98327374 75088,6950.201,96.107,574.134,569.998,0.0
55742.0,STARLINK-5594,PAYLOAD,2024-07-10 19:42:53,14.98330477,0.0002983,70.0009,334.7284,270.938,89.1438,6.4243e-05,6.74e-06,0.0,0 STARLINK-5594,1 55742U 23028B   24192.82145102  .00000674  00000-0  64243-4 0  9999,2 55742  70.0009 334.7284 0002983 270.9380  89.1438 14.98330477 75138,6950.191,96.107,574.13,569.983,0.0
55742.0,STARLINK-5594,PAYLOAD,2024-07-11 13:20:21,14.98334041,0.0002951,70.0012,332.877,271.2,88.8821,2.7258e-05,2.32e-06,0.0,0 STARLINK-5594,1 55742U 23028B   24193.55580895  .00000232  00000-0  27258-4 0  9997,2 55742  70.0012 332.8770 0002951 271.2000  88.8821 14.98334041 75244,6950.18,96.107,574.096,569.994,0.0
55742.0,STARLINK-5594,PAYLOAD,2024-07-12 14:58:30,14.98334695,0.000291,70.0016,330.1843,269.2887,90.7938,6.0916e-05,6.34e-06,0.0,0 STARLINK-5594,1 55742U 23028B   24194.62396624  .00000634  00000-0  60916-4 0  9995,2 55742  70.0016 330.1843 0002910 269.2887  90.7938 14.98334695 75409,6950.178,96.107,574.066,570.021,0.0
55742.0,STARLINK-5594,PAYLOAD,2024-07-12 18:10:47,14.98331219,0.0002866,70.0017,329.8484,266.0851,93.9981,5.6625e-05,5.83e-06,0.0,0 STARLINK-5594,1 55742U 23028B   24194.75748847  .00000583  00000-0  56625-4 0  9992,2 55742  70.0017 329.8484 0002866 266.0851  93.9981 14.98331219 75426,6950.189,96.107,574.046,570.062,0.0
55742.0,STARLINK-5594,PAYLOAD,2024-07-13 15:00:31,14.98332355,0.0002892,70.0017,327.6602,266.5507,93.5321,2.6481e-06,-6.1e-07,0.0,0 STARLINK-5594,1 55742U 23028B   24195.62536838 -.00000061  00000-0  26481-5 0  9994,2 55742  70.0017 327.6602 0002892 266.5507  93.5321 14.98332355 75556,6950.186,96.107,574.061,570.041,0.0
55742.0,STARLINK-5594,PAYLOAD,2024-07-13 18:12:47,14.98332754,0.0003107,70.0014,327.3238,269.1777,90.9026,5.2125e-05,5.29e-06,0.0,0 STARLINK-5594,1 55742U 23028B   24195.75888665  .00000529  00000-0  52125-4 0  9997,2 55742  70.0014 327.3238 0003107 269.1777  90.9026 14.98332754 75571,6950.184,96.107,574.209,569.89,0.0
55742.0,STARLINK-5594,PAYLOAD,2024-07-14 11:50:15,14.98341142,0.0003082,70.0012,325.4719,267.3965,92.6842,0.00019009,2.176e-05,0.0,0 STARLINK-5594,1 55742U 23028B   24196.49323541  .00002176  00000-0  19009-3 0  9999,2 55742  70.0012 325.4719 0003082 267.3965  92.6842 14.98341142 75681,6950.158,96.106,574.165,569.881,0.0
55742.0,STARLINK-5594,PAYLOAD,2024-07-14 15:02:31,14.9834771,0.0003135,70.0011,325.1352,268.1937,91.8863,0.00024247,2.803e-05,0.0,0 STARLINK-5594,1 55742U 23028B   24196.62674917  .00002803  00000-0  24247-3 0  9997,2 55742  70.0011 325.1352 0003135 268.1937  91.8863 14.98347710 75701,6950.138,96.106,574.182,569.824,0.0
55742.0,STARLINK-5594,PAYLOAD,2024-07-14 18:14:46,14.9835156,0.0003058,70.0013,324.7985,268.7483,91.3326,0.00024814,2.871e-05,0.0,0 STARLINK-5594,1 55742U 23028B   24196.76026572  .00002871  00000-0  24814-3 0  9995,2 55742  70.0013 324.7985 0003058 268.7483  91.3326 14.98351560 75725,6950.126,96.106,574.117,569.866,0.0
55742.0,STARLINK-5594,PAYLOAD,2024-07-15 11:52:17,14.98324248,0.0003362,70.0009,322.9473,276.6748,83.4028,-9.0551e-06,-2.01e-06,0.0,0 STARLINK-5594,1 55742U 23028B   24197.49464845 -.00000201  00000-0 -90551-5 0  9995,2 55742  70.0009 322.9473 0003362 276.6748  83.4028 14.98324248 75838,6950.211,96.107,574.412,569.739,0.0
55742.0,STARLINK-5594,PAYLOAD,2024-07-15 15:04:33,14.98324709,0.0003328,70.0006,322.6094,273.4139,86.6639,-4.5407e-05,-6.35e-06,0.0,0 STARLINK-5594,1 55742U 23028B   24197.62816875 -.00000635  00000-0 -45407-4 0  9994,2 55742  70.0006 322.6094 0003328 273.4139  86.6639 14.98324709 75859,6950.209,96.107,574.387,569.761,0.0
55742.0,STARLINK-5594,PAYLOAD,2024-07-15 18:16:49,14.98327343,0.0003179,70.0011,322.273,272.7376,87.3419,-1.1047e-05,-2.25e-06,0.0,0 STARLINK-5594,1 55742U 23028B   24197.76168673 -.00000225  00000-0 -11047-4 0  9993,2 55742  70.0011 322.2730 0003179 272.7376  87.3419 14.98327343 75870,6950.201,96.107,574.276,569.857,0.0
55742.0,STARLINK-5594,PAYLOAD,2024-07-16 11:54:18,14.98332024,0.0003176,70.0011,320.4214,273.2292,86.8504,-6.8532e-05,-9.11e-06,0.0,0 STARLINK-5594,1 55742U 23028B   24198.49604524 -.00000911  00000-0 -68532-4 0  9997,2 55742  70.0011 320.4214 0003176 273.2292  86.8504 14.98332024 75980,6950.187,96.107,574.259,569.844,0.0
55742.0,STARLINK-5594,PAYLOAD,2024-07-16 16:42:41,14.98343531,0.000306,70.0014,319.9179,272.4305,87.6504,-4.0875e-05,-5.81e-06,0.0,0 STARLINK-5594,1 55742U 23028B   24198.69631646 -.00000581  00000-0 -40875-4 0  9997,2 55742  70.0014 319.9179 0003060 272.4305  87.6504 14.98343531 76013,6950.151,96.106,574.143,569.889,0.0
55742.0,STARLINK-5594,PAYLOAD,2024-07-17 11:56:19,14.98318769,0.0002597,70.0027,317.9004,265.9,94.1863,0.00013283,1.492e-05,0.0,0 STARLINK-5594,1 55742U 23028B   24199.49745159  .00001492  00000-0  13283-3 0  9993,2 55742  70.0027 317.9004 0002597 265.9000  94.1863 14.98318769 76134,6950.228,96.108,573.898,570.288,0.0
55742.0,STARLINK-5594,PAYLOAD,2024-07-17 18:20:52,14.98320781,0.0002779,70.0026,317.2275,271.0747,89.0094,0.00014504,1.638e-05,0.0,0 STARLINK-5594,1 55742U 23028B   24199.76449188  .00001638  00000-0  14504-3 0  9995,2 55742  70.0026 317.2275 0002779 271.0747  89.0094 14.98320781 76174,6950.221,96.108,574.018,570.155,0.0
